CCSDS_OMM_VERS = 2.0
CREATION_DATE  = 
ORIGINATOR     = 

OBJECT_NAME    = COSMOS 1933
OBJECT_ID      = 1988-020A
CENTER_NAME    = EARTH
REF_FRAME      = TEME
TIME_SYSTEM    = UTC
MEAN_ELEMENT_THEORY = SGP/SGP4

EPOCH          = 2026-02-03T04:17:57.771168
MEAN_MOTION    = 15.17676790
ECCENTRICITY   = .0003636
INCLINATION    = 82.5131
RA_OF_ASC_NODE = 285.0533
ARG_OF_PERICENTER = 345.9551
MEAN_ANOMALY   = 14.1581

EPHEMERIS_TYPE = 0
CLASSIFICATION_TYPE = U
NORAD_CAT_ID   = 18958
ELEMENT_SET_NO = 999
REV_AT_EPOCH   = 4499
BSTAR          = .23237E-3
MEAN_MOTION_DOT = .471E-4
MEAN_MOTION_DDOT = 0

CCSDS_OMM_VERS = 2.0
CREATION_DATE  = 
ORIGINATOR     = 

OBJECT_NAME    = SL-3 R/B
OBJECT_ID      = 1988-032B
CENTER_NAME    = EARTH
REF_FRAME      = TEME
TIME_SYSTEM    = UTC
MEAN_ELEMENT_THEORY = SGP/SGP4

EPOCH          = 2026-02-03T11:50:04.284096
MEAN_MOTION    = 15.19449632
ECCENTRICITY   = .002615
INCLINATION    = 97.5141
RA_OF_ASC_NODE = 17.8905
ARG_OF_PERICENTER = 357.7277
MEAN_ANOMALY   = 2.3834

EPHEMERIS_TYPE = 0
CLASSIFICATION_TYPE = U
NORAD_CAT_ID   = 19046
ELEMENT_SET_NO = 999
REV_AT_EPOCH   = 4691
BSTAR          = .33848E-3
MEAN_MOTION_DOT = .717E-4
MEAN_MOTION_DDOT = 0

CCSDS_OMM_VERS = 2.0
CREATION_DATE  = 
ORIGINATOR     = 

OBJECT_NAME    = SL-16 R/B
OBJECT_ID      = 1988-039B
CENTER_NAME    = EARTH
REF_FRAME      = TEME
TIME_SYSTEM    = UTC
MEAN_ELEMENT_THEORY = SGP/SGP4

EPOCH          = 2026-02-03T12:34:34.899456
MEAN_MOTION    = 14.19611191
ECCENTRICITY   = .002069
INCLINATION    = 71.0151
RA_OF_ASC_NODE = 140.7928
ARG_OF_PERICENTER = 26.9165
MEAN_ANOMALY   = 333.3028

EPHEMERIS_TYPE = 0
CLASSIFICATION_TYPE = U
NORAD_CAT_ID   = 19120
ELEMENT_SET_NO = 999
REV_AT_EPOCH   = 95353
BSTAR          = .54191E-4
MEAN_MOTION_DOT = .67E-6
MEAN_MOTION_DDOT = 0

CCSDS_OMM_VERS = 2.0
CREATION_DATE  = 
ORIGINATOR     = 

OBJECT_NAME    = COSMOS 1953
OBJECT_ID      = 1988-050A
CENTER_NAME    = EARTH
REF_FRAME      = TEME
TIME_SYSTEM    = UTC
MEAN_ELEMENT_THEORY = SGP/SGP4

EPOCH          = 2026-02-03T10:41:07.338048
MEAN_MOTION    = 15.27808012
ECCENTRICITY   = .0010401
INCLINATION    = 82.5083
RA_OF_ASC_NODE = 192.6630
ARG_OF_PERICENTER = 242.7932
MEAN_ANOMALY   = 117.2248

EPHEMERIS_TYPE = 0
CLASSIFICATION_TYPE = U
NORAD_CAT_ID   = 19210
ELEMENT_SET_NO = 999
REV_AT_EPOCH   = 3255
BSTAR          = .42461E-3
MEAN_MOTION_DOT = .11581E-3
MEAN_MOTION_DDOT = 0

CCSDS_OMM_VERS = 2.0
CREATION_DATE  = 
ORIGINATOR     = 

OBJECT_NAME    = SL-8 R/B
OBJECT_ID      = 1988-053B
CENTER_NAME    = EARTH
REF_FRAME      = TEME
TIME_SYSTEM    = UTC
MEAN_ELEMENT_THEORY = SGP/SGP4

EPOCH          = 2026-02-03T12:29:54.134016
MEAN_MOTION    = 14.38894342
ECCENTRICITY   = .0020139
INCLINATION    = 74.0475
RA_OF_ASC_NODE = 175.4416
ARG_OF_PERICENTER = 1.3961
MEAN_ANOMALY   = 65.9933

EPHEMERIS_TYPE = 0
CLASSIFICATION_TYPE = U
NORAD_CAT_ID   = 19257
ELEMENT_SET_NO = 999
REV_AT_EPOCH   = 97168
BSTAR          = .8904E-4
MEAN_MOTION_DOT = .248E-5
MEAN_MOTION_DDOT = 0

CCSDS_OMM_VERS = 2.0
CREATION_DATE  = 
ORIGINATOR     = 

OBJECT_NAME    = COSMOS 1975
OBJECT_ID      = 1988-093A
CENTER_NAME    = EARTH
REF_FRAME      = TEME
TIME_SYSTEM    = UTC
MEAN_ELEMENT_THEORY = SGP/SGP4

EPOCH          = 2026-02-03T08:07:53.168448
MEAN_MOTION    = 15.27446259
ECCENTRICITY   = .0010375
INCLINATION    = 82.5227
RA_OF_ASC_NODE = 152.1401
ARG_OF_PERICENTER = 293.6691
MEAN_ANOMALY   = 66.3458

EPHEMERIS_TYPE = 0
CLASSIFICATION_TYPE = U
NORAD_CAT_ID   = 19573
ELEMENT_SET_NO = 999
REV_AT_EPOCH   = 1416
BSTAR          = .40233E-3
MEAN_MOTION_DOT = .10855E-3
MEAN_MOTION_DDOT = 0

CCSDS_OMM_VERS = 2.0
CREATION_DATE  = 
ORIGINATOR     = 

OBJECT_NAME    = SL-14 R/B
OBJECT_ID      = 1988-093B
CENTER_NAME    = EARTH
REF_FRAME      = TEME
TIME_SYSTEM    = UTC
MEAN_ELEMENT_THEORY = SGP/SGP4

EPOCH          = 2026-02-03T12:34:51.731040
MEAN_MOTION    = 14.85617881
ECCENTRICITY   = .0021547
INCLINATION    = 82.5284
RA_OF_ASC_NODE = 74.1258
ARG_OF_PERICENTER = 147.6237
MEAN_ANOMALY   = 326.3791

EPHEMERIS_TYPE = 0
CLASSIFICATION_TYPE = U
NORAD_CAT_ID   = 19574
ELEMENT_SET_NO = 999
REV_AT_EPOCH   = 99596
BSTAR          = .51961E-4
MEAN_MOTION_DOT = .476E-5
MEAN_MOTION_DDOT = 0

CCSDS_OMM_VERS = 2.0
CREATION_DATE  = 
ORIGINATOR     = 

OBJECT_NAME    = SL-16 R/B
OBJECT_ID      = 1988-102B
CENTER_NAME    = EARTH
REF_FRAME      = TEME
TIME_SYSTEM    = UTC
MEAN_ELEMENT_THEORY = SGP/SGP4

EPOCH          = 2026-02-03T12:08:09.049920
MEAN_MOTION    = 14.16145845
ECCENTRICITY   = .0012222
INCLINATION    = 70.9971
RA_OF_ASC_NODE = 223.4199
ARG_OF_PERICENTER = 58.2700
MEAN_ANOMALY   = 301.9612

EPHEMERIS_TYPE = 0
CLASSIFICATION_TYPE = U
NORAD_CAT_ID   = 19650
ELEMENT_SET_NO = 999
REV_AT_EPOCH   = 92205
BSTAR          = -.42003E-4
MEAN_MOTION_DOT = -.131E-5
MEAN_MOTION_DDOT = 0

CCSDS_OMM_VERS = 2.0
CREATION_DATE  = 
ORIGINATOR     = 

OBJECT_NAME    = INTERCOSMOS 24
OBJECT_ID      = 1989-080A
CENTER_NAME    = EARTH
REF_FRAME      = TEME
TIME_SYSTEM    = UTC
MEAN_ELEMENT_THEORY = SGP/SGP4

EPOCH          = 2026-02-03T07:56:33.317952
MEAN_MOTION    = 12.59510794
ECCENTRICITY   = .1188354
INCLINATION    = 82.6072
RA_OF_ASC_NODE = 126.7652
ARG_OF_PERICENTER = 12.5938
MEAN_ANOMALY   = 350.2261

EPHEMERIS_TYPE = 0
CLASSIFICATION_TYPE = U
NORAD_CAT_ID   = 20261
ELEMENT_SET_NO = 999
REV_AT_EPOCH   = 66247
BSTAR          = .15223E-3
MEAN_MOTION_DOT = .533E-5
MEAN_MOTION_DDOT = 0

CCSDS_OMM_VERS = 2.0
CREATION_DATE  = 
ORIGINATOR     = 

OBJECT_NAME    = SL-14 R/B
OBJECT_ID      = 1989-080C
CENTER_NAME    = EARTH
REF_FRAME      = TEME
TIME_SYSTEM    = UTC
MEAN_ELEMENT_THEORY = SGP/SGP4

EPOCH          = 2026-02-03T09:19:27.529248
MEAN_MOTION    = 12.50453176
ECCENTRICITY   = .122941
INCLINATION    = 82.5937
RA_OF_ASC_NODE = 195.2074
ARG_OF_PERICENTER = 263.1978
MEAN_ANOMALY   = 82.8063

EPHEMERIS_TYPE = 0
CLASSIFICATION_TYPE = U
NORAD_CAT_ID   = 20262
ELEMENT_SET_NO = 999
REV_AT_EPOCH   = 65586
BSTAR          = .10475E-3
MEAN_MOTION_DOT = .345E-5
MEAN_MOTION_DDOT = 0

CCSDS_OMM_VERS = 2.0
CREATION_DATE  = 
ORIGINATOR     = 

OBJECT_NAME    = DELTA 1 R/B
OBJECT_ID      = 1989-089B
CENTER_NAME    = EARTH
REF_FRAME      = TEME
TIME_SYSTEM    = UTC
MEAN_ELEMENT_THEORY = SGP/SGP4

EPOCH          = 2026-02-03T11:27:14.431104
MEAN_MOTION    = 14.50632654
ECCENTRICITY   = .006789
INCLINATION    = 97.0729
RA_OF_ASC_NODE = 247.3517
ARG_OF_PERICENTER = 230.1007
MEAN_ANOMALY   = 129.4210

EPHEMERIS_TYPE = 0
CLASSIFICATION_TYPE = U
NORAD_CAT_ID   = 20323
ELEMENT_SET_NO = 999
REV_AT_EPOCH   = 89077
BSTAR          = .1148E-3
MEAN_MOTION_DOT = .428E-5
MEAN_MOTION_DDOT = 0

CCSDS_OMM_VERS = 2.0
CREATION_DATE  = 
ORIGINATOR     = 

OBJECT_NAME    = ARIANE 40 R/B
OBJECT_ID      = 1990-005H
CENTER_NAME    = EARTH
REF_FRAME      = TEME
TIME_SYSTEM    = UTC
MEAN_ELEMENT_THEORY = SGP/SGP4

EPOCH          = 2026-02-03T03:17:34.680480
MEAN_MOTION    = 14.39846163
ECCENTRICITY   = .00091357
INCLINATION    = 98.3155
RA_OF_ASC_NODE = 95.8150
ARG_OF_PERICENTER = 313.1564
MEAN_ANOMALY   = 46.8861

EPHEMERIS_TYPE = 0
CLASSIFICATION_TYPE = U
NORAD_CAT_ID   = 20443
ELEMENT_SET_NO = 999
REV_AT_EPOCH   = 88783
BSTAR          = .10763391E-3
MEAN_MOTION_DOT = .296E-5
MEAN_MOTION_DDOT = 0

