COSMOS 1933             
1 18958U 88020A   26034.17914087  .00004710  00000+0  23237-3 0  9992
2 18958  82.5131 285.0533 0003636 345.9551  14.1581 15.17676790 44994
SL-3 R/B                
1 19046U 88032B   26034.49310514  .00007170  00000+0  33848-3 0  9996
2 19046  97.5141  17.8905 0026150 357.7277   2.3834 15.19449632 46915
SL-16 R/B               
1 19120U 88039B   26034.52401504  .00000067  00000+0  54191-4 0  9993
2 19120  71.0151 140.7928 0020690  26.9165 333.3028 14.19611191953538
COSMOS 1953             
1 19210U 88050A   26034.44522382  .00011581  00000+0  42461-3 0  9994
2 19210  82.5083 192.6630 0010401 242.7932 117.2248 15.27808012 32557
SL-8 R/B                
1 19257U 88053B   26034.52076544  .00000248  00000+0  89040-4 0  9994
2 19257  74.0475 175.4416 0020139   1.3961  65.9933 14.38894342971688
COSMOS 1975             
1 19573U 88093A   26034.33880982  .00010855  00000+0  40233-3 0  9992
2 19573  82.5227 152.1401 0010375 293.6691  66.3458 15.27446259 14168
SL-14 R/B               
1 19574U 88093B   26034.52420985  .00000476  00000+0  51961-4 0  9996
2 19574  82.5284  74.1258 0021547 147.6237 326.3791 14.85617881995961
SL-16 R/B               
1 19650U 88102B   26034.50566030 -.00000131  00000+0 -42003-4 0  9999
2 19650  70.9971 223.4199 0012222  58.2700 301.9612 14.16145845922056
INTERCOSMOS 24          
1 20261U 89080A   26034.33094118  .00000533  00000+0  15223-3 0  9996
2 20261  82.6072 126.7652 1188354  12.5938 350.2261 12.59510794662472
SL-14 R/B               
1 20262U 89080C   26034.38851307  .00000345  00000+0  10475-3 0  9998
2 20262  82.5937 195.2074 1229410 263.1978  82.8063 12.50453176655862
DELTA 1 R/B             
1 20323U 89089B   26034.47725036  .00000428  00000+0  11480-3 0  9993
2 20323  97.0729 247.3517 0067890 230.1007 129.4210 14.50632654890774
ARIANE 40 R/B           
1 20443U 90005H   26034.13720695  .00000296  00000+0  10763-3 0  9991
2 20443  98.3155  95.8150 0009135 313.1564  46.8861 14.39846163887837
